{"type":"FeatureCollection","features":[
{"type":"Feature","id":"-eUOjgJ1VsfyVf2QVGIGOAoc55U=","geometry":{"type":"Point","coordinates":[9.67389,45.69164]},"properties":{"name":"Best Western Hotel Piemontese","brand":"Best Western","address":"Bergamo, 24122","country":"IT","website":"https://www.bestwestern.com/en_US/book/hotels-in-bergamo/best-western-hotel-piemontese/propertyCode.98343.html"}},
{"type":"Feature","id":"-wgVgDVOqp5pMdsSVHF9yz5H3l4=","geometry":{"type":"Point","coordinates":[100.52919,13.72942]},"properties":{"name":"Aiden Surawong Bangkok","brand":"Aiden","address":"Bangkok, 10500","country":"TH","website":"https://www.bestwestern.com/en_US/book/hotels-in-bangkok/aiden-surawong-bangkok/propertyCode.99943.html"}},
{"type":"Feature","id":"12INQtj56RziIYNK_-QSsru3KOM=","geometry":{"type":"Point","coordinates":[10.9277,44.6473]},"properties":{"name":"Best Western Hotel Liberta","brand":"Best Western","address":"Modena, 41121","country":"IT","website":"https://www.bestwestern.com/en_US/book/hotels-in-modena/best-western-hotel-liberta/propertyCode.98237.html"}},
{"type":"Feature","id":"12Ng74g0sWRgfvjXgUztutbr1C8=","geometry":{"type":"Point","coordinates":[12.29686,45.66238]},"properties":{"name":"Best Western Titian Inn Hotel Treviso","brand":"Best Western","address":"Silea, 31057","country":"IT","website":"https://www.bestwestern.com/en_US/book/hotels-in-silea/best-western-titian-inn-hotel-treviso/propertyCode.98320.html"}},
{"type":"Feature","id":"1KW-zw3nO8Z4mYjSgji0Yn7uK38=","geometry":{"type":"Point","coordinates":[121.74261,17.64033]},"properties":{"name":"Best Western Plus Hotel Pulsar Cagayan","brand":"Best Western Plus","address":"Penablanca, 3502","country":"PH","website":"https://www.bestwestern.com/en_US/book/hotels-in-penablanca/best-western-plus-hotel-pulsar-cagayan/propertyCode.99112.html"}},
{"type":"Feature","id":"1NoHAu7Aujucu-1l2iq87JRnBC4=","geometry":{"type":"Point","coordinates":[9.90947,44.07685]},"properties":{"name":"Hotel Shelley e delle Palme, BW Signature Collection","brand":"BW Signature Collection","address":"Lerici, 19032","country":"IT","website":"https://www.bestwestern.com/en_US/book/hotels-in-lerici/hotel-shelley-e-delle-palme-bw-signature-collection/propertyCode.98432.html"}},
{"type":"Feature","id":"1d_tLrLmHA2Kk7SMfIce7f4th9Y=","geometry":{"type":"Point","coordinates":[11.4601,45.5147]},"properties":{"name":"Best Western Hotel Tre Torri","brand":"Best Western","address":"Vicenza, 36077","country":"IT","website":"https://www.bestwestern.com/en_US/book/hotels-in-vicenza/best-western-hotel-tre-torri/propertyCode.98219.html"}},
{"type":"Feature","id":"1sSBm4dkU2Kod2saNDI2v_8R0Fo=","geometry":{"type":"Point","coordinates":[11.31698,43.76239]},"properties":{"name":"Hotel Mulino di Firenze, WorldHotels Crafted","brand":"WorldHotels","address":"Firenze, 50126","country":"IT","website":"https://www.bestwestern.com/en_US/book/hotels-in-firenze/hotel-mulino-di-firenze-worldhotels-crafted/propertyCode.98419.html"}},
{"type":"Feature","id":"23K4RRJ9VvYQHvnUck5BKP4blWM=","geometry":{"type":"Point","coordinates":[10.60403,45.46681]},"properties":{"name":"Best Western Hotel Arya","brand":"Best Western","address":"Sirmione, 25019","country":"IT","website":"https://www.bestwestern.com/en_US/book/hotels-in-sirmione/best-western-hotel-arya/propertyCode.98444.html"}},
{"type":"Feature","id":"2BZuYnEGuviqYTWtmLWNlu6J0E4=","geometry":{"type":"Point","coordinates":[8.78828,45.80682]},"properties":{"name":"Hotel Horizon Wellness & Spa Resort, BW Signature Collection","brand":"BW Signature Collection","address":"Varese, 21100","country":"IT","website":"https://www.bestwestern.com/en_US/book/hotels-in-varese/hotel-horizon-wellness-spa-resort-bw-signature-collection/propertyCode.98410.html"}},
{"type":"Feature","id":"2H4R8vg5JDmUnSW367NF7eTuL6s=","geometry":{"type":"Point","coordinates":[12.53324,41.93697]},"properties":{"name":"Best Western Ars Hotel","brand":"Best Western","address":"Roma, 141","country":"IT","website":"https://www.bestwestern.com/en_US/book/hotels-in-roma/best-western-ars-hotel/propertyCode.98397.html"}},
{"type":"Feature","id":"3QaE22jecVNXZ0azqUlekLLXJXM=","geometry":{"type":"Point","coordinates":[100.54414,13.94312]},"properties":{"name":"Best Western Matter Tiwanon Hotel","brand":"Best Western","address":"Pak Kret District, 11120","country":"TH","website":"https://www.bestwestern.com/en_US/book/hotels-in-pak-kret-district/best-western-matter-tiwanon-hotel/propertyCode.99941.html"}},
{"type":"Feature","id":"3hcHxYOutMhdrSQ0wrauBRdvfj0=","geometry":{"type":"Point","coordinates":[11.10837,45.4211]},"properties":{"name":"Best Western Hotel Turismo","brand":"Best Western","address":"San Martino Buon Albergo, 37036","country":"IT","website":"https://www.bestwestern.com/en_US/book/hotels-in-san-martino-buon-albergo/best-western-hotel-turismo/propertyCode.98356.html"}},
{"type":"Feature","id":"3jQ7Z-97_ifjuDzBs_9GLOADBXk=","geometry":{"type":"Point","coordinates":[120.58894,15.16514]},"properties":{"name":"SureStay Plus by Best Western AC LUXE Angeles City","brand":"SureStay Plus","address":"Angeles City, 2009","country":"PH","website":"https://www.bestwestern.com/en_US/book/hotels-in-angeles-city/surestay-plus-by-best-western-ac-luxe-angeles-city/propertyCode.99107.html"}},
{"type":"Feature","id":"3xVnNeyYBxJlvsvwk_XC2fuwyHw=","geometry":{"type":"Point","coordinates":[13.36471,38.11611]},"properties":{"name":"Best Western Hotel Principe di Lampedusa","brand":"Best Western","address":"Palermo, 90133","country":"IT","website":"https://www.bestwestern.com/en_US/book/hotels-in-palermo/best-western-hotel-principe-di-lampedusa/propertyCode.98421.html"}},
{"type":"Feature","id":"3zrbMiZjRE0DRfoLnJo4AhJ58pI=","geometry":{"type":"Point","coordinates":[8.85505,44.42122]},"properties":{"name":"Best Western Premier CHC Airport","brand":"Best Western Premier","address":"Genova, 16153","country":"IT","website":"https://www.bestwestern.com/en_US/book/hotels-in-genova/best-western-premier-chc-airport/propertyCode.98327.html"}},
{"type":"Feature","id":"4Az33M_sRmS1THwylom9vtyc0ik=","geometry":{"type":"Point","coordinates":[126.45984,37.43836]},"properties":{"name":"Best Western Premier Incheon Airport","brand":"Best Western Premier","address":"Incheon, 22382","country":"KR","website":"https://www.bestwestern.com/en_US/book/hotels-in-incheon/best-western-premier-incheon-airport/propertyCode.99509.html"}},
{"type":"Feature","id":"4NOrNzrxImqPD_RfOlhPkw_ozg0=","geometry":{"type":"Point","coordinates":[127.29223,36.59245]},"properties":{"name":"Best Western Plus Hotel Sejong","brand":"Best Western Plus","address":"Sejong-Si, 30116","country":"KR","website":"https://www.bestwestern.com/en_US/book/hotels-in-sejong-si/best-western-plus-hotel-sejong/propertyCode.99533.html"}},
{"type":"Feature","id":"4oD1ejHTQmaJK5uderWDpAQ6fw0=","geometry":{"type":"Point","coordinates":[13.61658,45.94036]},"properties":{"name":"Best Western Gorizia Palace Hotel","brand":"Best Western","address":"Gorizia, 34170","country":"IT","website":"https://www.bestwestern.com/en_US/book/hotels-in-gorizia/best-western-gorizia-palace-hotel/propertyCode.98254.html"}},
{"type":"Feature","id":"52cnqPfGfjWNDdDMtSEz82UlMO8=","geometry":{"type":"Point","coordinates":[13.834,41.5075]},"properties":{"name":"Best Western Hotel Rocca","brand":"Best Western","address":"Cassino, 03043","country":"IT","website":"https://www.bestwestern.com/en_US/book/hotels-in-cassino/best-western-hotel-rocca/propertyCode.98339.html"}},
{"type":"Feature","id":"5IUrVfj9dcaDvkqArq_bOmYfJEE=","geometry":{"type":"Point","coordinates":[106.82673,-6.13924]},"properties":{"name":"Best Western Mangga Dua Hotel and Residence","brand":"Best Western","address":"Jakarta, 10730","country":"ID","website":"https://www.bestwestern.com/en_US/book/hotels-in-jakarta/best-western-mangga-dua-hotel-and-residence/propertyCode.99034.html"}},
{"type":"Feature","id":"5KsGZmgt6SLlQOXV_eEg3uVZNdg=","geometry":{"type":"Point","coordinates":[12.20453,46.46203]},"properties":{"name":"Best Western Hotel Nevada","brand":"Best Western","address":"San Vito Di Cadore, 32046","country":"IT","website":"https://www.bestwestern.com/en_US/book/hotels-in-san-vito-di-cadore/best-western-hotel-nevada/propertyCode.98439.html"}},
{"type":"Feature","id":"5Q4f-gp65Gz0KnKuZ9vLWRSMGdI=","geometry":{"type":"Point","coordinates":[9.11948,45.51456]},"properties":{"name":"Best Western Plus The Hub Hotel","brand":"Best Western Plus","address":"Milano, 20157","country":"IT","website":"https://www.bestwestern.com/en_US/book/hotels-in-milano/best-western-plus-the-hub-hotel/propertyCode.98430.html"}},
{"type":"Feature","id":"60ps_wBcBumxqMdQKdYlfeCl4DE=","geometry":{"type":"Point","coordinates":[107.61035,-6.90927]},"properties":{"name":"Best Western Premier La Grande Hotel","brand":"Best Western Premier","address":"Bandung, 40117","country":"ID","website":"https://www.bestwestern.com/en_US/book/hotels-in-bandung/best-western-premier-la-grande-hotel/propertyCode.99806.html"}},
{"type":"Feature","id":"62qRJGPLbrqSs5UQ0BBN9GhSvjg=","geometry":{"type":"Point","coordinates":[100.85779,12.90968]},"properties":{"name":"The Sanctuary Resort Pattaya, BW Signature Collection","brand":"BW Signature Collection","address":"Pattaya, 20150","country":"TH","website":"https://www.bestwestern.com/en_US/book/hotels-in-pattaya/the-sanctuary-resort-pattaya-bw-signature-collection/propertyCode.99932.html"}},
{"type":"Feature","id":"690Ff88Cj-YkBAvOpEZ9rIyZUNw=","geometry":{"type":"Point","coordinates":[8.94626,44.40565]},"properties":{"name":"Best Western Hotel Moderno Verdi","brand":"Best Western","address":"Genoa, 16121","country":"IT","website":"https://www.bestwestern.com/en_US/book/hotels-in-genoa/best-western-hotel-moderno-verdi/propertyCode.98342.html"}},
{"type":"Feature","id":"69JyDwG7OF7JrUvfaBC9qaVN9Ys=","geometry":{"type":"Point","coordinates":[8.75891,45.64341]},"properties":{"name":"Best Western Hotel Cavalieri Della Corona","brand":"Best Western","address":"Cardano Al Campo, 21010","country":"IT","website":"https://www.bestwestern.com/en_US/book/hotels-in-cardano-al-campo/best-western-hotel-cavalieri-della-corona/propertyCode.98235.html"}},
{"type":"Feature","id":"6eBHjDUpWUa39iC6FoCQnr1g_tk=","geometry":{"type":"Point","coordinates":[13.23338,46.08582]},"properties":{"name":"Best Western Hotel Continental","brand":"Best Western","address":"Udine, 33100","country":"IT","website":"https://www.bestwestern.com/en_US/book/hotels-in-udine/best-western-hotel-continental/propertyCode.98317.html"}},
{"type":"Feature","id":"6xwwTKxmf-mg7NZhQEOemFpNt7s=","geometry":{"type":"Point","coordinates":[127.14723,35.82258]},"properties":{"name":"Best Western Plus Jeonju Hotel","brand":"Best Western Plus","address":"Jeonju-Si, 55000","country":"KR","website":"https://www.bestwestern.com/en_US/book/hotels-in-jeonju-si/best-western-plus-jeonju-hotel/propertyCode.99531.html"}},
{"type":"Feature","id":"7mgMEjYDr0erVj-OPNY3NvOKjk0=","geometry":{"type":"Point","coordinates":[18.16892,40.30605]},"properties":{"name":"Best Western Plus Leone di Messapia Hotel & Conference","brand":"Best Western Plus","address":"Lecce, 73100","country":"IT","website":"https://www.bestwestern.com/en_US/book/hotels-in-lecce/best-western-plus-leone-di-messapia-hotel-conference/propertyCode.98346.html"}},
{"type":"Feature","id":"8MQOlgn0BpxqC9Ii7lX8azmKQOE=","geometry":{"type":"Point","coordinates":[9.14341,45.47409]},"properties":{"name":"Hotel Astoria, Sure Hotel Collection by Best Western","brand":"Sure Hotel Collection","address":"Milano, 20149","country":"IT","website":"https://www.bestwestern.com/en_US/book/hotels-in-milano/hotel-astoria-sure-hotel-collection-by-best-western/propertyCode.98204.html"}},
{"type":"Feature","id":"8q-McELOFKBqluSeMCl-_TS5Ml0=","geometry":{"type":"Point","coordinates":[12.5966,44.05334]},"properties":{"name":"Best Western Maison B Hotel","brand":"Best Western","address":"Rimini, 47921","country":"IT","website":"https://www.bestwestern.com/en_US/book/hotels-in-rimini/best-western-maison-b-hotel/propertyCode.98398.html"}},
{"type":"Feature","id":"8vbcMvF4fgTvyGHn3b3bSt8LN6A=","geometry":{"type":"Point","coordinates":[11.27776,45.404]},"properties":{"name":"Best Western Plus Soave Hotel","brand":"Best Western Plus","address":"San Bonifacio, 37047","country":"IT","website":"https://www.bestwestern.com/en_US/book/hotels-in-san-bonifacio/best-western-plus-soave-hotel/propertyCode.98264.html"}},
{"type":"Feature","id":"9D7_XbIW_M7Z4n-2YGCvF4TFbqg=","geometry":{"type":"Point","coordinates":[-101.44982,31.19167]},"properties":{"name":"Best Western Plus Big Lake Inn","brand":"Best Western Plus","address":"Big Lake, TX, 76932","country":"US","website":"https://www.bestwestern.com/en_US/book/hotels-in-big-lake/best-western-plus-big-lake-inn/propertyCode.44727.html"}},
{"type":"Feature","id":"9WUyKDV51OWXmdUez_2OSxupz7I=","geometry":{"type":"Point","coordinates":[-2.72097,54.32363]},"properties":{"name":"Castle Green Hotel In Kendal, BW Premier Collection","brand":"BW Premier Collection","address":"Kendal, England, LA9 6RG","country":"GB","website":"https://www.bestwestern.com/en_US/book/hotels-in-kendal/castle-green-hotel-in-kendal-bw-premier-collection/propertyCode.83674.html"}},
{"type":"Feature","id":"9Ybayy8HiLwdfdXYleQGEqUC6oI=","geometry":{"type":"Point","coordinates":[99.97539,12.46715]},"properties":{"name":"Best Western Plus Carapace Hotel Hua Hin","brand":"Best Western Plus","address":"Hua Hin, 77110","country":"TH","website":"https://www.bestwestern.com/en_US/book/hotels-in-hua-hin/best-western-plus-carapace-hotel-hua-hin/propertyCode.99929.html"}},
{"type":"Feature","id":"9bxksw2wKI9C5W0dDxtwEg9Sd1g=","geometry":{"type":"Point","coordinates":[13.89219,40.69836]},"properties":{"name":"Hotel Terme San Michele & SPA, WorldHotels Distinctive","brand":"WorldHotels","address":"Borgo Sant'Angelo, 80070","country":"IT","website":"https://www.bestwestern.com/en_US/book/hotels-in-borgo-sant-angelo/hotel-terme-san-michele-spa-worldhotels-distinctive/propertyCode.98450.html"}},
{"type":"Feature","id":"9rOr6frTpgTy0wsJ4k0dw7X8M7w=","geometry":{"type":"Point","coordinates":[13.52878,45.80286]},"properties":{"name":"Europalace Hotel, BW Signature Collection","brand":"BW Signature Collection","address":"Monfalcone, 34074","country":"IT","website":"https://www.bestwestern.com/en_US/book/hotels-in-monfalcone/europalace-hotel-bw-signature-collection/propertyCode.98412.html"}},
{"type":"Feature","id":"A7xJ_bjjEZ0e8ueZFfQgQ02BYfw=","geometry":{"type":"Point","coordinates":[14.26979,40.85381]},"properties":{"name":"Best Western Hotel dei Mille","brand":"Best Western","address":"Napoli, 80142","country":"IT","website":"https://www.bestwestern.com/en_US/book/hotels-in-napoli/best-western-hotel-dei-mille/propertyCode.98427.html"}},
{"type":"Feature","id":"BMEJbkCyxBGJ7HzltHifTG-U644=","geometry":{"type":"Point","coordinates":[-114.08119,51.04037]},"properties":{"name":"Best Western Plus Suites Downtown","brand":"Best Western Plus","address":"Calgary, AB, T2R 1B6","country":"CA","website":"https://www.bestwestern.com/en_US/book/hotels-in-calgary/best-western-plus-suites-downtown/propertyCode.61037.html"}},
{"type":"Feature","id":"BY34QXrpgxW2fkdN0snFdSTnctI=","geometry":{"type":"Point","coordinates":[16.57425,40.68899]},"properties":{"name":"Best Western Plus Dimora del Monaco","brand":"Best Western Plus","address":"Matera, 75100","country":"IT","website":"https://www.bestwestern.com/en_US/book/hotels-in-matera/best-western-plus-dimora-del-monaco/propertyCode.98440.html"}},
{"type":"Feature","id":"CitFlFtmTJ91GJj6PzWIwqqHm1M=","geometry":{"type":"Point","coordinates":[9.15462,44.34909]},"properties":{"name":"Sublimis Boutique Hotel, WorldHotels Elite","brand":"WorldHotels","address":"Camogli, 16032","country":"IT","website":"https://www.bestwestern.com/en_US/book/hotels-in-camogli/sublimis-boutique-hotel-worldhotels-elite/propertyCode.98453.html"}},
{"type":"Feature","id":"CjR7HQ7w0BBe8hA3GLH3HbB3eAY=","geometry":{"type":"Point","coordinates":[12.06621,43.02193]},"properties":{"name":"Antico Sipario Boutique Hotel, BW Signature Collection","brand":"BW Signature Collection","address":"Paciano, 06060","country":"IT","website":"https://www.bestwestern.com/en_US/book/hotels-in-paciano/antico-sipario-boutique-hotel-bw-signature-collection/propertyCode.98433.html"}},
{"type":"Feature","id":"DGmj46_E09jEZuXOtcMgtEQpvSk=","geometry":{"type":"Point","coordinates":[12.53572,41.90258]},"properties":{"name":"Best Western Blu Hotel Roma","brand":"Best Western","address":"Rome, 00159","country":"IT","website":"https://www.bestwestern.com/en_US/book/hotels-in-rome/best-western-blu-hotel-roma/propertyCode.98289.html"}},
{"type":"Feature","id":"DmdFIaOSkfZn3jGrVu0oenVyELw=","geometry":{"type":"Point","coordinates":[14.26801,40.85401]},"properties":{"name":"Best Western Plus Hotel Plaza","brand":"Best Western Plus","address":"Napoli, 80142","country":"IT","website":"https://www.bestwestern.com/en_US/book/hotels-in-napoli/best-western-plus-hotel-plaza/propertyCode.98247.html"}},
{"type":"Feature","id":"Do6NeIcmkVeuBI7EftIjUCtDZI8=","geometry":{"type":"Point","coordinates":[15.01713,38.14083]},"properties":{"name":"Best Western Plus Hotel Terre di Eolo","brand":"Best Western Plus","address":"Patti, 98066","country":"IT","website":"https://www.bestwestern.com/en_US/book/hotels-in-patti/best-western-plus-hotel-terre-di-eolo/propertyCode.98363.html"}},
{"type":"Feature","id":"EFAQcNYUXV2yjoAjGKfg_7aohAg=","geometry":{"type":"Point","coordinates":[12.24256,41.77287]},"properties":{"name":"Best Western Hotel Rome Airport","brand":"Best Western","address":"Fiumicino, 00054","country":"IT","website":"https://www.bestwestern.com/en_US/book/hotels-in-fiumicino/best-western-hotel-rome-airport/propertyCode.98336.html"}},
{"type":"Feature","id":"EGpi-QfL6Uyz95djiMxtRBlpSDE=","geometry":{"type":"Point","coordinates":[100.54694,13.79842]},"properties":{"name":"Best Western Chatuchak","brand":"Best Western","address":"Chatuchak, 10900","country":"TH","website":"https://www.bestwestern.com/en_US/book/hotels-in-chatuchak/best-western-chatuchak/propertyCode.99930.html"}},
{"type":"Feature","id":"FXLWOFAuVAuoUQm8hmcwVuDJiuY=","geometry":{"type":"Point","coordinates":[100.5655,13.76306]},"properties":{"name":"Best Western Ratchada Hotel","brand":"Best Western","address":"Din Daeng, 10400","country":"TH","website":"https://www.bestwestern.com/en_US/book/hotels-in-din-daeng/best-western-ratchada-hotel/propertyCode.99931.html"}},
{"type":"Feature","id":"Fz6XgEaw2K_42RDNVxFtklFOwvw=","geometry":{"type":"Point","coordinates":[14.75771,36.86664]},"properties":{"name":"Modica Inn Centro, BW Premier Collection","brand":"BW Premier Collection","address":"Modica, 97015","country":"IT","website":"https://www.bestwestern.com/en_US/book/hotels-in-modica/modica-inn-centro-bw-premier-collection/propertyCode.98438.html"}},
{"type":"Feature","id":"GKzU-WbiHtpd7CVSkUO0qqT8nis=","geometry":{"type":"Point","coordinates":[100.55614,13.72006]},"properties":{"name":"Seekers Finders Rama IV Hotel, SureStay Collection by BW","brand":"SureStay Collection","address":"Bangkok, 10110","country":"TH","website":"https://www.bestwestern.com/en_US/book/hotels-in-bangkok/seekers-finders-rama-iv-hotel-surestay-collection-by-bw/propertyCode.99927.html"}},
{"type":"Feature","id":"GUnvHt_9nIsd9knOhewbc7RjLTk=","geometry":{"type":"Point","coordinates":[123.76852,9.54828]},"properties":{"name":"Best Western Plus The Ivywall Resort-Panglao","brand":"Best Western Plus","address":"Panglao, 6340","country":"PH","website":"https://www.bestwestern.com/en_US/book/hotels-in-panglao/best-western-plus-the-ivywall-resort-panglao/propertyCode.99108.html"}},
{"type":"Feature","id":"H6I2kxjygPCV9wbjsphvzweYPT4=","geometry":{"type":"Point","coordinates":[9.87015,46.17036]},"properties":{"name":"Grand Hotel della Posta, WorldHotels Distinctive","brand":"WorldHotels","address":"Sondrio, 23100","country":"IT","website":"https://www.bestwestern.com/en_US/book/hotels-in-sondrio/grand-hotel-della-posta-worldhotels-distinctive/propertyCode.98446.html"}},
{"type":"Feature","id":"HDk1bfeSztsPae75HxIBv33rp9Q=","geometry":{"type":"Point","coordinates":[7.67614,45.05524]},"properties":{"name":"Best Western Plus Executive Hotel and Suites","brand":"Best Western Plus","address":"Torino, 10125","country":"IT","website":"https://www.bestwestern.com/en_US/book/hotels-in-torino/best-western-plus-executive-hotel-and-suites/propertyCode.98311.html"}},
{"type":"Feature","id":"H_RUd1KjBbpS6D7n60QFh67hMWM=","geometry":{"type":"Point","coordinates":[15.55119,38.19474]},"properties":{"name":"Best Western Plus Fontana Falconieri Hotel","brand":"Best Western Plus","address":"Messina, 98122","country":"IT","website":"https://www.bestwestern.com/en_US/book/hotels-in-messina/best-western-plus-fontana-falconieri-hotel/propertyCode.98454.html"}},
{"type":"Feature","id":"HadRBtRn-9vWs1OwbFRL2P5Z3RM=","geometry":{"type":"Point","coordinates":[13.353,38.1219]},"properties":{"name":"Best Western Ai Cavalieri Hotel","brand":"Best Western","address":"Palermo, 90141","country":"IT","website":"https://www.bestwestern.com/en_US/book/hotels-in-palermo/best-western-ai-cavalieri-hotel/propertyCode.98233.html"}},
{"type":"Feature","id":"HmMnnu54NbhTiPYsoSYAd3oiM-Y=","geometry":{"type":"Point","coordinates":[9.07153,45.42635]},"properties":{"name":"Best Western Hotel Goldenmile Milan","brand":"Best Western","address":"Trezzano Sul Naviglio, 20090","country":"IT","website":"https://www.bestwestern.com/en_US/book/hotels-in-trezzano-sul-naviglio/best-western-hotel-goldenmile-milan/propertyCode.98299.html"}},
{"type":"Feature","id":"ILN6U5vrv217ZJpFnO1TI_rRnSk=","geometry":{"type":"Point","coordinates":[14.05833,40.91553]},"properties":{"name":"Hotel Agora, Sure Hotel Collection by Best Western","brand":"Sure Hotel Collection","address":"Giugliano In Campania, 80014","country":"IT","website":"https://www.bestwestern.com/en_US/book/hotels-in-giugliano-in-campania/hotel-agora-sure-hotel-collection-by-best-western/propertyCode.98418.html"}},
{"type":"Feature","id":"JELxOx275Kf8YMKEXPTji7ezx08=","geometry":{"type":"Point","coordinates":[9.17256,45.58036]},"properties":{"name":"Best Western Mirage Hotel Fiera","brand":"Best Western","address":"Paderno Dugnano, 20037","country":"IT","website":"https://www.bestwestern.com/en_US/book/hotels-in-paderno-dugnano/best-western-mirage-hotel-fiera/propertyCode.98364.html"}},
{"type":"Feature","id":"KCRgy-075D9DrkzTgUiqhS7AJWE=","geometry":{"type":"Point","coordinates":[10.97713,45.42183]},"properties":{"name":"Best Western Hotel Fiera Verona","brand":"Best Western","address":"Verona, 37136","country":"IT","website":"https://www.bestwestern.com/en_US/book/hotels-in-verona/best-western-hotel-fiera-verona/propertyCode.98425.html"}},
{"type":"Feature","id":"KJj5mKnqe2iUZdMzviOTOHbYl7I=","geometry":{"type":"Point","coordinates":[12.60109,35.49995]},"properties":{"name":"Best Western Hotel Martello","brand":"Best Western","address":"Lampedusa, 92031","country":"IT","website":"https://www.bestwestern.com/en_US/book/hotels-in-lampedusa/best-western-hotel-martello/propertyCode.98422.html"}},
{"type":"Feature","id":"KJt-ubs0RreWmORYR7TSu50Cb88=","geometry":{"type":"Point","coordinates":[100.84392,13.60062]},"properties":{"name":"SureStay By Best Western Iconic Suvarnabhumi","brand":"SureStay","address":"Samut Prakan, 10560","country":"TH","website":"https://www.bestwestern.com/en_US/book/hotels-in-samut-prakan/surestay-by-best-western-iconic-suvarnabhumi/propertyCode.99936.html"}},
{"type":"Feature","id":"KldeHzB-YkS6yydOBBXpT2AMy5c=","geometry":{"type":"Point","coordinates":[-0.45917,46.32232]},"properties":{"name":"Best Western Hotel de la Breche","brand":"Best Western","address":"Niort, 79000","country":"FR","website":"https://www.bestwestern.com/en_US/book/hotels-in-niort/best-western-hotel-de-la-breche/propertyCode.93712.html"}},
{"type":"Feature","id":"M2AFCNQr4f6xsWCs7Gb8qEclaas=","geometry":{"type":"Point","coordinates":[101.56889,13.91844]},"properties":{"name":"Tawa Ravadee Resort, WorldHotels Distinctive","brand":"WorldHotels","address":"Prachinburi, 25140","country":"TH","website":"https://www.bestwestern.com/en_US/book/hotels-in-prachinburi/tawa-ravadee-resort-worldhotels-distinctive/propertyCode.99366.html"}},
{"type":"Feature","id":"MAeyqWuLBeqDoO-w2N6yd3YceCY=","geometry":{"type":"Point","coordinates":[13.06001,41.28729]},"properties":{"name":"Best Western Plus Sabaudia Hotel","brand":"Best Western Plus","address":"Sabaudia, 04016","country":"IT","website":"https://www.bestwestern.com/en_US/book/hotels-in-sabaudia/best-western-plus-sabaudia-hotel/propertyCode.98426.html"}},
{"type":"Feature","id":"MDjwUBXWTj56ukG4CmhoyadU7sA=","geometry":{"type":"Point","coordinates":[14.41963,35.95544]},"properties":{"name":"Best Western Premier Malta","brand":"Best Western Premier","address":"St. Paul's Bay, SPB 1281","country":"MT","website":"https://www.bestwestern.com/en_US/book/hotels-in-st-paul-s-bay/best-western-premier-malta/propertyCode.98428.html"}},
{"type":"Feature","id":"MV7ZWQFT0MDPqkUKJzTYPjv-JDk=","geometry":{"type":"Point","coordinates":[100.89329,12.94336]},"properties":{"name":"SureStay Plus by Best Western T Pattaya","brand":"SureStay Plus","address":"Chonburi, 20150","country":"TH","website":"https://www.bestwestern.com/en_US/book/hotels-in-chonburi/surestay-plus-by-best-western-t-pattaya/propertyCode.99939.html"}},
{"type":"Feature","id":"Mb4ytFiXed6Kv_OOupSlK76IY3U=","geometry":{"type":"Point","coordinates":[7.67919,45.06044]},"properties":{"name":"Best Western Crystal Palace Hotel","brand":"Best Western","address":"Torino, 10125","country":"IT","website":"https://www.bestwestern.com/en_US/book/hotels-in-torino/best-western-crystal-palace-hotel/propertyCode.98365.html"}},
{"type":"Feature","id":"Mq7TTzhKJi11Xd1-Rx6I-o9ijmE=","geometry":{"type":"Point","coordinates":[11.20877,43.79431]},"properties":{"name":"Best Western Plus CHC Florence","brand":"Best Western Plus","address":"Firenze, 50127","country":"IT","website":"https://www.bestwestern.com/en_US/book/hotels-in-firenze/best-western-plus-chc-florence/propertyCode.98367.html"}},
{"type":"Feature","id":"N17f9VxrxzXG-GkpGrYwQsbkRg0=","geometry":{"type":"Point","coordinates":[129.16136,35.16092]},"properties":{"name":"Best Western Haeundae Hotel","brand":"Best Western","address":"Busan, 48094","country":"KR","website":"https://www.bestwestern.com/en_US/book/hotels-in-busan/best-western-haeundae-hotel/propertyCode.99525.html"}},
{"type":"Feature","id":"N2Ao6OvY-DRJyydMG6-V7kIJQYQ=","geometry":{"type":"Point","coordinates":[7.54762,44.39035]},"properties":{"name":"Best Western Plus Hotel Royal Superga","brand":"Best Western Plus","address":"Cuneo, 12100","country":"IT","website":"https://www.bestwestern.com/en_US/book/hotels-in-cuneo/best-western-plus-hotel-royal-superga/propertyCode.98395.html"}},
{"type":"Feature","id":"NZsU_zS9mf3VVQTY2wDB783TtoY=","geometry":{"type":"Point","coordinates":[11.92362,45.67148]},"properties":{"name":"Albergo Roma, BW Signature Collection","brand":"BW Signature Collection","address":"Castelfranco Veneto, 31033","country":"IT","website":"https://www.bestwestern.com/en_US/book/hotels-in-castelfranco-veneto/albergo-roma-bw-signature-collection/propertyCode.98213.html"}},
{"type":"Feature","id":"NlkfEbilnJWtYtAVthWMuDM2gmo=","geometry":{"type":"Point","coordinates":[12.1802,45.6685]},"properties":{"name":"Best Western Premier BHR Treviso Hotel","brand":"Best Western Premier","address":"Quinto Di Treviso, 31055","country":"IT","website":"https://www.bestwestern.com/en_US/book/hotels-in-quinto-di-treviso/best-western-premier-bhr-treviso-hotel/propertyCode.98323.html"}},
{"type":"Feature","id":"Nlqa4Q4YBtFp1IyOMouAcf5nAOE=","geometry":{"type":"Point","coordinates":[118.74704,9.73978]},"properties":{"name":"Best Western Plus The Ivywall Hotel - Palawan","brand":"Best Western Plus","address":"Puerto Princesa, 5300","country":"PH","website":"https://www.bestwestern.com/en_US/book/hotels-in-puerto-princesa/best-western-plus-the-ivywall-hotel-palawan/propertyCode.99104.html"}},
{"type":"Feature","id":"OAAfmWcGKxhwRnsGb_fho72d98A=","geometry":{"type":"Point","coordinates":[12.37187,41.75279]},"properties":{"name":"Best Western Hotel I Triangoli","brand":"Best Western","address":"Roma, 00124","country":"IT","website":"https://www.bestwestern.com/en_US/book/hotels-in-roma/best-western-hotel-i-triangoli/propertyCode.98265.html"}},
{"type":"Feature","id":"O_hcYO_k4ZdEfwpWnRcNCEsqvGA=","geometry":{"type":"Point","coordinates":[17.95467,40.6377]},"properties":{"name":"Best Western Hotel Nettuno","brand":"Best Western","address":"Brindisi, 72100","country":"IT","website":"https://www.bestwestern.com/en_US/book/hotels-in-brindisi/best-western-hotel-nettuno/propertyCode.98382.html"}},
{"type":"Feature","id":"OmhRjr2iMGSqvHmMbGPa_46o1mg=","geometry":{"type":"Point","coordinates":[9.41669,45.58018]},"properties":{"name":"Devero Hotel & Spa, BW Signature Collection","brand":"BW Signature Collection","address":"Cavenago Di Brianza, 20873","country":"IT","website":"https://www.bestwestern.com/en_US/book/hotels-in-cavenago-di-brianza/devero-hotel-spa-bw-signature-collection/propertyCode.98381.html"}},
{"type":"Feature","id":"OpGILJUlEI4XW9dWFPk12J6Vb6U=","geometry":{"type":"Point","coordinates":[12.4349,37.7994]},"properties":{"name":"Best Western Hotel Stella D'Italia","brand":"Best Western","address":"Marsala, 91025","country":"IT","website":"https://www.bestwestern.com/en_US/book/hotels-in-marsala/best-western-hotel-stella-d-italia/propertyCode.98257.html"}},
{"type":"Feature","id":"PGx6WtgkFJ6uDae9WpmdfCvtWvs=","geometry":{"type":"Point","coordinates":[9.22948,44.34839]},"properties":{"name":"Best Western Plus Tigullio Royal Hotel","brand":"Best Western Plus","address":"Rapallo, 16035","country":"IT","website":"https://www.bestwestern.com/en_US/book/hotels-in-rapallo/best-western-plus-tigullio-royal-hotel/propertyCode.98280.html"}},
{"type":"Feature","id":"Q5XI2WR6vAqsp6ZF0YgKu3CYMTQ=","geometry":{"type":"Point","coordinates":[11.91934,45.41587]},"properties":{"name":"Best Western Plus Net Tower Hotel Padova","brand":"Best Western Plus","address":"Padova, 35129","country":"IT","website":"https://www.bestwestern.com/en_US/book/hotels-in-padova/best-western-plus-net-tower-hotel-padova/propertyCode.98379.html"}},
{"type":"Feature","id":"QIuJaBUqRS2Q3fwjLcWrwQRgiNQ=","geometry":{"type":"Point","coordinates":[126.99871,37.57562]},"properties":{"name":"Orakai Daehakro Hotel, BW Signature Collection","brand":"BW Signature Collection","address":"Seoul, 03127","country":"KR","website":"https://www.bestwestern.com/en_US/book/hotels-in-seoul/orakai-daehakro-hotel-bw-signature-collection/propertyCode.99537.html"}},
{"type":"Feature","id":"QR740Shekb05d8TLCcl3cVfjOWE=","geometry":{"type":"Point","coordinates":[127.06856,36.80937]},"properties":{"name":"Best Western Asan Hotel","brand":"Best Western","address":"Asan, 31457","country":"KR","website":"https://www.bestwestern.com/en_US/book/hotels-in-asan/best-western-asan-hotel/propertyCode.99539.html"}},
{"type":"Feature","id":"QhxIL52x0p1pDGmGOmOCuEkd2Us=","geometry":{"type":"Point","coordinates":[12.57732,41.92944]},"properties":{"name":"Best Western Hotel Revolution","brand":"Best Western","address":"Rome, 156","country":"IT","website":"https://www.bestwestern.com/en_US/book/hotels-in-rome/best-western-hotel-revolution/propertyCode.98451.html"}},
{"type":"Feature","id":"QoI7j3CjdWsEndrUb0DmkhDoFXc=","geometry":{"type":"Point","coordinates":[98.29506,7.85162]},"properties":{"name":"Best Western Phuket Ocean Resort","brand":"Best Western","address":"Phuket, 83100","country":"TH","website":"https://www.bestwestern.com/en_US/book/hotels-in-phuket/best-western-phuket-ocean-resort/propertyCode.99312.html"}},
{"type":"Feature","id":"R-oa9UwQHnrP5bOy-u0iISUAa5Y=","geometry":{"type":"Point","coordinates":[12.34282,45.43403]},"properties":{"name":"Hotel Savoia e Jolanda, WorldHotels Elite","brand":"WorldHotels","address":"Venice, 30122","country":"IT","website":"https://www.bestwestern.com/en_US/book/hotels-in-venice/hotel-savoia-e-jolanda-worldhotels-elite/propertyCode.98449.html"}},
{"type":"Feature","id":"R0YT0azCvn2ScLO84NQOB1YYmJg=","geometry":{"type":"Point","coordinates":[12.57513,45.63065]},"properties":{"name":"Best Western Park Hotel Continental","brand":"Best Western","address":"San Dona Di Piave, 30027","country":"IT","website":"https://www.bestwestern.com/en_US/book/hotels-in-san-dona-di-piave/best-western-park-hotel-continental/propertyCode.98276.html"}},
{"type":"Feature","id":"RO1z1Vb7I2knssV3SsECTT9fXgc=","geometry":{"type":"Point","coordinates":[106.87553,-6.2446]},"properties":{"name":"Best Western Premier The Hive","brand":"Best Western Premier","address":"Jakarta, 13340","country":"ID","website":"https://www.bestwestern.com/en_US/book/hotels-in-jakarta/best-western-premier-the-hive/propertyCode.99045.html"}},
{"type":"Feature","id":"RYinA06ais12hODasugpRt1Edvg=","geometry":{"type":"Point","coordinates":[14.51669,35.9003]},"properties":{"name":"The Vincent Boutique Hotel, BW Premier Collection","brand":"BW Premier Collection","address":"La Valletta, VLT1010","country":"MT","website":"https://www.bestwestern.com/en_US/book/hotels-in-la-valletta/the-vincent-boutique-hotel-bw-premier-collection/propertyCode.98435.html"}},
{"type":"Feature","id":"RduES_SIObJkasTBo255JgNvvk4=","geometry":{"type":"Point","coordinates":[126.6685,33.4548]},"properties":{"name":"Ecoland Hotel, WorldHotels Elite","brand":"WorldHotels","address":"Jeju, 633-46","country":"KR","website":"https://www.bestwestern.com/en_US/book/hotels-in-jeju/ecoland-hotel-worldhotels-elite/propertyCode.99540.html"}},
{"type":"Feature","id":"S1T4XWPdT2MC9dDlcibUHKUAW60=","geometry":{"type":"Point","coordinates":[127.03044,37.52003]},"properties":{"name":"Aiden by Best Western Cheongdam","brand":"Aiden","address":"Seoul, 06047","country":"KR","website":"https://www.bestwestern.com/en_US/book/hotels-in-seoul/aiden-by-best-western-cheongdam/propertyCode.99529.html"}},
{"type":"Feature","id":"S9X71XkC8xU_be5RSUi-OCW36qM=","geometry":{"type":"Point","coordinates":[10.68755,45.6084]},"properties":{"name":"Hotel Al Caminetto - Adults Only, WorldHotels Crafted","brand":"WorldHotels","address":"Torri Del Benaco, 37010","country":"IT","website":"https://www.bestwestern.com/en_US/book/hotels-in-torri-del-benaco/hotel-al-caminetto-adults-only-worldhotels-crafted/propertyCode.98431.html"}},
{"type":"Feature","id":"T0VFOkG3haiC_6Rgf1UN5O2cY5M=","geometry":{"type":"Point","coordinates":[12.46914,41.92329]},"properties":{"name":"Best Western Hotel Astrid","brand":"Best Western","address":"Roma, 00196","country":"IT","website":"https://www.bestwestern.com/en_US/book/hotels-in-roma/best-western-hotel-astrid/propertyCode.98282.html"}},
{"type":"Feature","id":"Tcqg-CxdcBlazbbOxezRqXzDVGA=","geometry":{"type":"Point","coordinates":[12.5189,41.88149]},"properties":{"name":"Best Western Cinemusic Hotel","brand":"Best Western","address":"Rome, 00182","country":"IT","website":"https://www.bestwestern.com/en_US/book/hotels-in-rome/best-western-cinemusic-hotel/propertyCode.98345.html"}},
{"type":"Feature","id":"TvFNW-ipZm2OZYEt73MkGDbSZ6w=","geometry":{"type":"Point","coordinates":[96.14809,16.77689]},"properties":{"name":"Best Western Chinatown Hotel","brand":"Best Western","address":"Yangon, 127 137","country":"MM","website":"https://www.bestwestern.com/en_US/book/hotels-in-yangon/best-western-chinatown-hotel/propertyCode.99702.html"}},
{"type":"Feature","id":"U7TXh5p8xK7gaUZV5RZLuuhEkVk=","geometry":{"type":"Point","coordinates":[12.51684,41.90585]},"properties":{"name":"Best Western Plus Globus Hotel","brand":"Best Western Plus","address":"Roma, 00161","country":"IT","website":"https://www.bestwestern.com/en_US/book/hotels-in-roma/best-western-plus-globus-hotel/propertyCode.98242.html"}},
{"type":"Feature","id":"UKhJqSMS4T6ZHv4DLOtRUqW4r5E=","geometry":{"type":"Point","coordinates":[115.15873,-8.8033]},"properties":{"name":"Best Western Kamala Jimbaran","brand":"Best Western","address":"Jimbaran, 80361","country":"ID","website":"https://www.bestwestern.com/en_US/book/hotels-in-jimbaran/best-western-kamala-jimbaran/propertyCode.99811.html"}},
{"type":"Feature","id":"Vv4vrP1CNKMOcfpfsHhKKQymU2k=","geometry":{"type":"Point","coordinates":[9.25438,45.54486]},"properties":{"name":"Best Western Falck Village Hotel","brand":"Best Western","address":"Sesto San Giovanni, 20099","country":"IT","website":"https://www.bestwestern.com/en_US/book/hotels-in-sesto-san-giovanni/best-western-falck-village-hotel/propertyCode.98281.html"}},
{"type":"Feature","id":"VvxfUZmWbAZPJ76DK-wLBxNfLSE=","geometry":{"type":"Point","coordinates":[100.8968,12.94813]},"properties":{"name":"Best Western Plus Nexen Pattaya","brand":"Best Western Plus","address":"Pattaya, 20150","country":"TH","website":"https://www.bestwestern.com/en_US/book/hotels-in-pattaya/best-western-plus-nexen-pattaya/propertyCode.99369.html"}},
{"type":"Feature","id":"W4MqiSITQ6ZNL5XQNqFI3NZerog=","geometry":{"type":"Point","coordinates":[126.48186,33.48781]},"properties":{"name":"Best Western Jeju Hotel","brand":"Best Western","address":"Jeju, 690 762","country":"KR","website":"https://www.bestwestern.com/en_US/book/hotels-in-jeju/best-western-jeju-hotel/propertyCode.99524.html"}},
{"type":"Feature","id":"WPxMiyiQ50zI-B-1KZkBf_TGi-M=","geometry":{"type":"Point","coordinates":[103.1022,14.9942]},"properties":{"name":"Best Western Royal Buriram Hotel","brand":"Best Western","address":"Buriram, 31000","country":"TH","website":"https://www.bestwestern.com/en_US/book/hotels-in-buriram/best-western-royal-buriram-hotel/propertyCode.99325.html"}},
{"type":"Feature","id":"W_SJYY7x4DfZJ-ZunXwb7XTxYF8=","geometry":{"type":"Point","coordinates":[15.16839,37.60669]},"properties":{"name":"Best Western Hotel Santa Caterina","brand":"Best Western","address":"Acireale, 95024","country":"IT","website":"https://www.bestwestern.com/en_US/book/hotels-in-acireale/best-western-hotel-santa-caterina/propertyCode.98402.html"}},
{"type":"Feature","id":"W_ikPBsjgBE0Y-TN6ETgsIBBfhk=","geometry":{"type":"Point","coordinates":[8.80348,45.65024]},"properties":{"name":"Jet Hotel, Sure Hotel Collection by Best Western","brand":"Sure Hotel Collection","address":"Gallarate, 21013","country":"IT","website":"https://www.bestwestern.com/en_US/book/hotels-in-gallarate/jet-hotel-sure-hotel-collection-by-best-western/propertyCode.98221.html"}},
{"type":"Feature","id":"Wj726QOGWdIWoyKv8xXn0UoAJp0=","geometry":{"type":"Point","coordinates":[16.25623,41.32021]},"properties":{"name":"Best Western Hotel Dei Cavalieri","brand":"Best Western","address":"Barletta, 76121","country":"IT","website":"https://www.bestwestern.com/en_US/book/hotels-in-barletta/best-western-hotel-dei-cavalieri/propertyCode.98207.html"}},
{"type":"Feature","id":"X9hHq9mqyP8JXvD-HYrLmYDyGYY=","geometry":{"type":"Point","coordinates":[16.63121,38.82761]},"properties":{"name":"Best Western Plus Hotel Perla del Porto","brand":"Best Western Plus","address":"Catanzaro Lido, 88100","country":"IT","website":"https://www.bestwestern.com/en_US/book/hotels-in-catanzaro-lido/best-western-plus-hotel-perla-del-porto/propertyCode.98325.html"}},
{"type":"Feature","id":"XAN6ZNAwsMSpVGWUIh_SrcSm-JU=","geometry":{"type":"Point","coordinates":[12.20143,41.91478]},"properties":{"name":"Best Western Hotel Corsi","brand":"Best Western","address":"Fiumicino, 00054","country":"IT","website":"https://www.bestwestern.com/en_US/book/hotels-in-fiumicino/best-western-hotel-corsi/propertyCode.98408.html"}},
{"type":"Feature","id":"XaO0vhVuqXRXWG6q6SHRuwJ-i6c=","geometry":{"type":"Point","coordinates":[123.8912,10.3139]},"properties":{"name":"SureStay Plus by Best Western Cebu City","brand":"SureStay Plus","address":"Cebu, 6000","country":"PH","website":"https://www.bestwestern.com/en_US/book/hotels-in-cebu/surestay-plus-by-best-western-cebu-city/propertyCode.99110.html"}},
{"type":"Feature","id":"Y32v8RxKJQ7TZ6_vaG2pivh3eYw=","geometry":{"type":"Point","coordinates":[15.2881,40.036]},"properties":{"name":"Best Western Hotel La Conchiglia","brand":"Best Western","address":"Palinuro, 84064","country":"IT","website":"https://www.bestwestern.com/en_US/book/hotels-in-palinuro/best-western-hotel-la-conchiglia/propertyCode.98241.html"}},
{"type":"Feature","id":"YCTqYLrBZTUJsxpycD_DcvACXw8=","geometry":{"type":"Point","coordinates":[7.89797,43.83847]},"properties":{"name":"Best Western Hotel Anthurium","brand":"Best Western","address":"Santo Stefano, 18010","country":"IT","website":"https://www.bestwestern.com/en_US/book/hotels-in-santo-stefano/best-western-hotel-anthurium/propertyCode.98347.html"}},
{"type":"Feature","id":"YHCHtbTRM4VlAp0k-EXzxhG50Sw=","geometry":{"type":"Point","coordinates":[14.69622,36.87845]},"properties":{"name":"La Dimora di Spartivento, BW Signature Collection","brand":"BW Signature Collection","address":"Ragusa, 97100","country":"IT","website":"https://www.bestwestern.com/en_US/book/hotels-in-ragusa/la-dimora-di-spartivento-bw-signature-collection/propertyCode.98404.html"}},
{"type":"Feature","id":"YOqNp2cJ1U1guGDzVZ4NnqQo1KE=","geometry":{"type":"Point","coordinates":[14.41767,40.65932]},"properties":{"name":"Hotel Le Ancore, BW Signature Collection","brand":"BW Signature Collection","address":"Vico Equense, 80069","country":"IT","website":"https://www.bestwestern.com/en_US/book/hotels-in-vico-equense/hotel-le-ancore-bw-signature-collection/propertyCode.98413.html"}},
{"type":"Feature","id":"YSdVIujNHXXFewZ3pPaZV6a8jv8=","geometry":{"type":"Point","coordinates":[9.1418,45.49472]},"properties":{"name":"Hotel Mirage, Sure Hotel Collection by Best Western","brand":"Sure Hotel Collection","address":"Milano, 20156","country":"IT","website":"https://www.bestwestern.com/en_US/book/hotels-in-milano/hotel-mirage-sure-hotel-collection-by-best-western/propertyCode.98340.html"}},
{"type":"Feature","id":"YU8E6sMo6-tcv83C5leS7qsJC3k=","geometry":{"type":"Point","coordinates":[96.1696,16.8015]},"properties":{"name":"Best Western Green Hill Hotel","brand":"Best Western","address":"Yangon","country":"MM","website":"https://www.bestwestern.com/en_US/book/hotels-in-yangon/best-western-green-hill-hotel/propertyCode.99701.html"}},
{"type":"Feature","id":"Z7JvaLo8Fznd0XNxHjOk-gHhtxc=","geometry":{"type":"Point","coordinates":[98.30643,7.99052]},"properties":{"name":"Best Western Premier Bangtao Beach Resort & Spa","brand":"Best Western Premier","address":"Phuket, 83110","country":"TH","website":"https://www.bestwestern.com/en_US/book/hotels-in-phuket/best-western-premier-bangtao-beach-resort-spa/propertyCode.99313.html"}},
{"type":"Feature","id":"Z7rA3U0Et9-RTNAHumMA_B7KmoA=","geometry":{"type":"Point","coordinates":[14.18464,40.8209]},"properties":{"name":"Best Western JFK Hotel","brand":"Best Western","address":"Naples, 80125","country":"IT","website":"https://www.bestwestern.com/en_US/book/hotels-in-naples/best-western-jfk-hotel/propertyCode.98366.html"}},
{"type":"Feature","id":"ZcjaoaMEaVOAJ0zy91Qe8n7g7DM=","geometry":{"type":"Point","coordinates":[14.41733,40.65912]},"properties":{"name":"Hotel Le Axidie, BW Signature Collection","brand":"BW Signature Collection","address":"Vico Equense, 80069","country":"IT","website":"https://www.bestwestern.com/en_US/book/hotels-in-vico-equense/hotel-le-axidie-bw-signature-collection/propertyCode.98414.html"}},
{"type":"Feature","id":"ZdOkKQt6rsUiyNekAPrbnBAFxeM=","geometry":{"type":"Point","coordinates":[10.17318,46.21567]},"properties":{"name":"Hotel Centrale, BW Signature Collection","brand":"BW Signature Collection","address":"Tirano, 23037","country":"IT","website":"https://www.bestwestern.com/en_US/book/hotels-in-tirano/hotel-centrale-bw-signature-collection/propertyCode.98423.html"}},
{"type":"Feature","id":"Zn1mwrR63kgUO6hIk00bV_AQvWY=","geometry":{"type":"Point","coordinates":[11.01586,45.39908]},"properties":{"name":"Best Western CTC Hotel Verona","brand":"Best Western","address":"San Giovanni Lupatoto, 37057","country":"IT","website":"https://www.bestwestern.com/en_US/book/hotels-in-san-giovanni-lupatoto/best-western-ctc-hotel-verona/propertyCode.98326.html"}},
{"type":"Feature","id":"_JadSkTi1Mts5F-NqWFv35vPb_U=","geometry":{"type":"Point","coordinates":[106.79878,-6.22778]},"properties":{"name":"Best Western Senayan","brand":"Best Western","address":"Jakarta, 10270","country":"ID","website":"https://www.bestwestern.com/en_US/book/hotels-in-jakarta/best-western-senayan/propertyCode.99813.html"}},
{"type":"Feature","id":"_qS8tW6IoE5VebGzsPVHrh8r6_0=","geometry":{"type":"Point","coordinates":[11.8963,45.41074]},"properties":{"name":"Best Western Plus Hotel Galileo Padova","brand":"Best Western Plus","address":"Padova, 35131","country":"IT","website":"https://www.bestwestern.com/en_US/book/hotels-in-padova/best-western-plus-hotel-galileo-padova/propertyCode.98295.html"}},
{"type":"Feature","id":"_rjqyP_jNokBo3LChr1Op5JL5hw=","geometry":{"type":"Point","coordinates":[10.96528,45.3749]},"properties":{"name":"Muraless Art Hotel, WorldHotels Crafted","brand":"WorldHotels","address":"Castel D'Azzano, 37060","country":"IT","website":"https://www.bestwestern.com/en_US/book/hotels-in-castel-d-azzano/muraless-art-hotel-worldhotels-crafted/propertyCode.98434.html"}},
{"type":"Feature","id":"aZ0I2f4I5I4UxetGKWpLXjhFCas=","geometry":{"type":"Point","coordinates":[12.21399,44.13226]},"properties":{"name":"Best Western Cesena Hotel","brand":"Best Western","address":"Cesena, 47023","country":"IT","website":"https://www.bestwestern.com/en_US/book/hotels-in-cesena/best-western-cesena-hotel/propertyCode.98236.html"}},
{"type":"Feature","id":"ae4_TesHd0Cf8F2jvYBZ9yVI-cU=","geometry":{"type":"Point","coordinates":[9.28406,45.46609]},"properties":{"name":"Best Western Air Hotel Linate","brand":"Best Western","address":"Segrate, 20054","country":"IT","website":"https://www.bestwestern.com/en_US/book/hotels-in-segrate/best-western-air-hotel-linate/propertyCode.98396.html"}},
{"type":"Feature","id":"amRjLObNeYk1YlT46BmE6CdOrY8=","geometry":{"type":"Point","coordinates":[9.18738,45.46324]},"properties":{"name":"Matilde Boutique Hotel, WorldHotels Elite","brand":"WorldHotels","address":"Milan, 20123","country":"IT","website":"https://www.bestwestern.com/en_US/book/hotels-in-milan/matilde-boutique-hotel-worldhotels-elite/propertyCode.98447.html"}},
{"type":"Feature","id":"b-Dg35KDatCUZHsIp_X9B_hcTks=","geometry":{"type":"Point","coordinates":[12.32475,45.50197]},"properties":{"name":"Best Western Titian Inn Hotel Venice Airport","brand":"Best Western","address":"Tessera, 30173","country":"IT","website":"https://www.bestwestern.com/en_US/book/hotels-in-tessera/best-western-titian-inn-hotel-venice-airport/propertyCode.98334.html"}},
{"type":"Feature","id":"bbz4_JEntgHG-PXpcLcLggsslXM=","geometry":{"type":"Point","coordinates":[12.3198,45.4364]},"properties":{"name":"Hotel Olimpia Venice, BW Signature Collection","brand":"BW Signature Collection","address":"Venezia, 30135","country":"IT","website":"https://www.bestwestern.com/en_US/book/hotels-in-venezia/hotel-olimpia-venice-bw-signature-collection/propertyCode.98261.html"}},
{"type":"Feature","id":"btquMEOv9vVsGNFIbW_SRL-Qe50=","geometry":{"type":"Point","coordinates":[120.56753,15.16555]},"properties":{"name":"SureStay Studio by Best Western Clarkview, Angeles City","brand":"SureStay Studio","address":"Angeles City, 2009","country":"PH","website":"https://www.bestwestern.com/en_US/book/hotels-in-angeles-city/surestay-studio-by-best-western-clarkview-angeles-city/propertyCode.99109.html"}},
{"type":"Feature","id":"cB6dMZKvfibCpusr_IXTR__ZlPg=","geometry":{"type":"Point","coordinates":[10.31651,44.8143]},"properties":{"name":"Best Western Plus Hotel Farnese","brand":"Best Western Plus","address":"Parma, 43126","country":"IT","website":"https://www.bestwestern.com/en_US/book/hotels-in-parma/best-western-plus-hotel-farnese/propertyCode.98217.html"}},
{"type":"Feature","id":"cTQ4jksXv6h77_b4-ZfyJsvC2mA=","geometry":{"type":"Point","coordinates":[100.89785,12.95351]},"properties":{"name":"Siamese Hotel Pattaya, BW Signature Collection","brand":"BW Signature Collection","address":"Bang Lamung District, 20150","country":"TH","website":"https://www.bestwestern.com/en_US/book/hotels-in-bang-lamung-district/siamese-hotel-pattaya-bw-signature-collection/propertyCode.99940.html"}},
{"type":"Feature","id":"cW5x2g-l4CxKvxwJjb7jf3mpNeQ=","geometry":{"type":"Point","coordinates":[11.13265,46.01479]},"properties":{"name":"Best Western Hotel Adige","brand":"Best Western","address":"Trento, 38123","country":"IT","website":"https://www.bestwestern.com/en_US/book/hotels-in-trento/best-western-hotel-adige/propertyCode.98373.html"}},
{"type":"Feature","id":"cbT_VRCg2RsfrorUD7Z_C9bGgKk=","geometry":{"type":"Point","coordinates":[12.50995,38.01555]},"properties":{"name":"Palazzo Gatto Art Hotel & SPA, BW Premier Collection","brand":"BW Premier Collection","address":"Trapani, 91100","country":"IT","website":"https://www.bestwestern.com/en_US/book/hotels-in-trapani/palazzo-gatto-art-hotel-spa-bw-premier-collection/propertyCode.98417.html"}},
{"type":"Feature","id":"cmo59hZ2RY4rDzRCUzMtebtCtzI=","geometry":{"type":"Point","coordinates":[100.54659,13.79809]},"properties":{"name":"SimpleStay Chatuchak, SureStay Collection by Best Western","brand":"SureStay Collection","address":"Bangkok, 10900","country":"TH","website":"https://www.bestwestern.com/en_US/book/hotels-in-bangkok/simplestay-chatuchak-surestay-collection-by-best-western/propertyCode.99937.html"}},
{"type":"Feature","id":"d8_02iOixVeHLkAi6bcy1-B71Y4=","geometry":{"type":"Point","coordinates":[10.3028,44.8245]},"properties":{"name":"Best Western Hotel Green City","brand":"Best Western","address":"Parma, 43126","country":"IT","website":"https://www.bestwestern.com/en_US/book/hotels-in-parma/best-western-hotel-green-city/propertyCode.98429.html"}},
{"type":"Feature","id":"dQZnrtxRw8MLI0XrXNQaFu2r4rg=","geometry":{"type":"Point","coordinates":[7.67599,45.06194]},"properties":{"name":"Sure Hotel by Best Western Turin City Centre","brand":"Sure Hotel","address":"Torino, 10128","country":"IT","website":"https://www.bestwestern.com/en_US/book/hotels-in-torino/sure-hotel-by-best-western-turin-city-centre/propertyCode.98437.html"}},
{"type":"Feature","id":"dm-QNDAYIpAbvKrkAzBZfzWNbQk=","geometry":{"type":"Point","coordinates":[119.41321,-5.14444]},"properties":{"name":"Best Western Plus Makassar Beach","brand":"Best Western Plus","address":"Makassar, 90113","country":"ID","website":"https://www.bestwestern.com/en_US/book/hotels-in-makassar/best-western-plus-makassar-beach/propertyCode.99044.html"}},
{"type":"Feature","id":"dqH3US1BPJzPUjE930_vza1d9SM=","geometry":{"type":"Point","coordinates":[100.55285,13.79163]},"properties":{"name":"SureStay by Best Western Iconic Ari-Jatujak","brand":"SureStay","address":"Bangkok, 10400","country":"TH","website":"https://www.bestwestern.com/en_US/book/hotels-in-bangkok/surestay-by-best-western-iconic-ari-jatujak/propertyCode.99938.html"}},
{"type":"Feature","id":"dtV3MZ37wKSVb-MDSA_A4F-UTWU=","geometry":{"type":"Point","coordinates":[13.11274,41.72542]},"properties":{"name":"Best Western Hotel Colaiaco","brand":"Best Western","address":"Anagni, 03012","country":"IT","website":"https://www.bestwestern.com/en_US/book/hotels-in-anagni/best-western-hotel-colaiaco/propertyCode.98441.html"}},
{"type":"Feature","id":"e7A90iGujKHPx275oX_soy_Gais=","geometry":{"type":"Point","coordinates":[124.82353,1.46238]},"properties":{"name":"Best Western The Lagoon Hotel","brand":"Best Western","address":"Manado, 95115","country":"ID","website":"https://www.bestwestern.com/en_US/book/hotels-in-manado/best-western-the-lagoon-hotel/propertyCode.99807.html"}},
{"type":"Feature","id":"etUvTUKOHl11hmaVaK65peaBV-Q=","geometry":{"type":"Point","coordinates":[16.28159,38.91956]},"properties":{"name":"Best Western Hotel Class","brand":"Best Western","address":"Lamezia Terme, 88046","country":"IT","website":"https://www.bestwestern.com/en_US/book/hotels-in-lamezia-terme/best-western-hotel-class/propertyCode.98368.html"}},
{"type":"Feature","id":"fUksG9ngvOjtoFfPOEjxFuJUDZI=","geometry":{"type":"Point","coordinates":[113.91978,-2.24313]},"properties":{"name":"Best Western Batang Garing","brand":"Best Western","address":"Palangkaraya, 73111","country":"ID","website":"https://www.bestwestern.com/en_US/book/hotels-in-palangkaraya/best-western-batang-garing/propertyCode.99814.html"}},
{"type":"Feature","id":"g0xqSVijfF1MPvj4ngaFg9FWQIc=","geometry":{"type":"Point","coordinates":[100.60053,13.74492]},"properties":{"name":"SureStay Plus by Best Western Ramkhamhaeng Airport Rail Link","brand":"SureStay Plus","address":"Bangkok, 10250","country":"TH","website":"https://www.bestwestern.com/en_US/book/hotels-in-bangkok/surestay-plus-by-best-western-ramkhamhaeng-airport-rail-link/propertyCode.99942.html"}},
{"type":"Feature","id":"gGt3-ijxuwYDo45rqdM3oZKyIbI=","geometry":{"type":"Point","coordinates":[12.50178,41.90275]},"properties":{"name":"Best Western Premier Hotel Royal Santina","brand":"Best Western Premier","address":"Rome, 00185","country":"IT","website":"https://www.bestwestern.com/en_US/book/hotels-in-rome/best-western-premier-hotel-royal-santina/propertyCode.98296.html"}},
{"type":"Feature","id":"gLXXr0PxViLvGIWEHEUDzpheTng=","geometry":{"type":"Point","coordinates":[9.03115,45.48702]},"properties":{"name":"Best Western Plus Hotel Le Favaglie","brand":"Best Western Plus","address":"Cornaredo, 20010","country":"IT","website":"https://www.bestwestern.com/en_US/book/hotels-in-cornaredo/best-western-plus-hotel-le-favaglie/propertyCode.98316.html"}},
{"type":"Feature","id":"gUaNdQM81zegQEQH0A0EATC8x5g=","geometry":{"type":"Point","coordinates":[12.23342,45.48289]},"properties":{"name":"Best Western Hotel Tritone","brand":"Best Western","address":"Mestre, 30171","country":"IT","website":"https://www.bestwestern.com/en_US/book/hotels-in-mestre/best-western-hotel-tritone/propertyCode.98380.html"}},
{"type":"Feature","id":"gbglf2TiNC9YApJGIEHZfKDAJdg=","geometry":{"type":"Point","coordinates":[16.63961,40.13003]},"properties":{"name":"Best Western Hotel Imperiale","brand":"Best Western","address":"Nova Siri Scalo, 75020","country":"IT","website":"https://www.bestwestern.com/en_US/book/hotels-in-nova-siri-scalo/best-western-hotel-imperiale/propertyCode.98399.html"}},
{"type":"Feature","id":"gqnW49J00w7gN7MhJP1z4i7NNGM=","geometry":{"type":"Point","coordinates":[8.4324,44.2364]},"properties":{"name":"Best Western Hotel Acqua Novella","brand":"Best Western","address":"Spotorno, 17028","country":"IT","website":"https://www.bestwestern.com/en_US/book/hotels-in-spotorno/best-western-hotel-acqua-novella/propertyCode.98229.html"}},
{"type":"Feature","id":"gzUhgN5DoMpcXl5QIec5GEBpSoM=","geometry":{"type":"Point","coordinates":[119.88827,-0.91637]},"properties":{"name":"Best Western Plus Coco Palu","brand":"Best Western Plus","address":"Palu, 94113","country":"ID","website":"https://www.bestwestern.com/en_US/book/hotels-in-palu/best-western-plus-coco-palu/propertyCode.99808.html"}},
{"type":"Feature","id":"hApBQuRcnQPFoQaaVcC9XWYEKX4=","geometry":{"type":"Point","coordinates":[9.24249,45.56205]},"properties":{"name":"Best Western Plus Hotel Monza e Brianza Palace","brand":"Best Western Plus","address":"Cinisello Balsamo, 20092","country":"IT","website":"https://www.bestwestern.com/en_US/book/hotels-in-cinisello-balsamo/best-western-plus-hotel-monza-e-brianza-palace/propertyCode.98274.html"}},
{"type":"Feature","id":"hK7b1lfDqzZNPTJsOEDQRxwZUhs=","geometry":{"type":"Point","coordinates":[-80.36776,25.80934]},"properties":{"name":"Best Western Plus Miami-Doral/Dolphin Mall","brand":"Best Western Plus","address":"Miami, FL, 33178-4292","country":"US","website":"https://www.bestwestern.com/en_US/book/hotels-in-miami/best-western-plus-miami-doral-dolphin-mall/propertyCode.10323.html"}},
{"type":"Feature","id":"ibz53l8SoAKDKX6LBaszdX7pYr0=","geometry":{"type":"Point","coordinates":[120.59093,15.16232]},"properties":{"name":"Best Western Plus Metro Clark","brand":"Best Western Plus","address":"Angeles City, 2009","country":"PH","website":"https://www.bestwestern.com/en_US/book/hotels-in-angeles-city/best-western-plus-metro-clark/propertyCode.99106.html"}},
{"type":"Feature","id":"icTtSpwp2RsvDWurPmCHS7TVbRI=","geometry":{"type":"Point","coordinates":[12.32387,45.44219]},"properties":{"name":"CHC Continental, BW Premier Collection","brand":"BW Premier Collection","address":"Venezia, 30121","country":"IT","website":"https://www.bestwestern.com/en_US/book/hotels-in-venezia/chc-continental-bw-premier-collection/propertyCode.98388.html"}},
{"type":"Feature","id":"j5OFa80dxF6oNZkHL0iJIzlOsJE=","geometry":{"type":"Point","coordinates":[11.5912,44.84864]},"properties":{"name":"Best Western Palace Inn Hotel","brand":"Best Western","address":"Ferrara, 44122","country":"IT","website":"https://www.bestwestern.com/en_US/book/hotels-in-ferrara/best-western-palace-inn-hotel/propertyCode.98293.html"}},
{"type":"Feature","id":"jEuOrPeiiFwWHJovlEdK29W-RBk=","geometry":{"type":"Point","coordinates":[112.73043,-7.33141]},"properties":{"name":"Best Western De Papilio","brand":"Best Western","address":"Surabaya, 60235","country":"ID","website":"https://www.bestwestern.com/en_US/book/hotels-in-surabaya/best-western-de-papilio/propertyCode.99805.html"}},
{"type":"Feature","id":"jSHgRY_hiuWQFzFZmwlTPDc484Y=","geometry":{"type":"Point","coordinates":[10.99803,45.43633]},"properties":{"name":"Best Western Hotel Armando","brand":"Best Western","address":"Verona, 37121","country":"IT","website":"https://www.bestwestern.com/en_US/book/hotels-in-verona/best-western-hotel-armando/propertyCode.98359.html"}},
{"type":"Feature","id":"jwa8DelKIDq9ItehMTF0N9aMhn8=","geometry":{"type":"Point","coordinates":[100.54215,13.773]},"properties":{"name":"Vib Best Western Sanam Pao","brand":"Vib","address":"Bangkok, 10400","country":"TH","website":"https://www.bestwestern.com/en_US/book/hotels-in-bangkok/vib-best-western-sanam-pao/propertyCode.99365.html"}},
{"type":"Feature","id":"k2Pdq4dOVb8PCGDnvo7abjHKvPg=","geometry":{"type":"Point","coordinates":[107.60096,-6.84606]},"properties":{"name":"Best Western Setiabudhi Bandung","brand":"Best Western","address":"Bandung, 40143","country":"ID","website":"https://www.bestwestern.com/en_US/book/hotels-in-bandung/best-western-setiabudhi-bandung/propertyCode.99817.html"}},
{"type":"Feature","id":"k85DlkyxCyWt3Nn8mtLfD4crE0Q=","geometry":{"type":"Point","coordinates":[115.17636,-8.73322]},"properties":{"name":"Best Western Kuta Villa","brand":"Best Western","address":"Bali, 80361","country":"ID","website":"https://www.bestwestern.com/en_US/book/hotels-in-bali/best-western-kuta-villa/propertyCode.99036.html"}},
{"type":"Feature","id":"kL4vTuioqYa02CE5bUSGvvjKzis=","geometry":{"type":"Point","coordinates":[16.23955,39.36804]},"properties":{"name":"Best Western Premier Villa Fabiano Palace Hotel","brand":"Best Western Premier","address":"Rende, 87036","country":"IT","website":"https://www.bestwestern.com/en_US/book/hotels-in-rende/best-western-premier-villa-fabiano-palace-hotel/propertyCode.98291.html"}},
{"type":"Feature","id":"kq8OIgeeFNzj4BOQJYe08pJtnqM=","geometry":{"type":"Point","coordinates":[10.85252,44.68614]},"properties":{"name":"Best Western Hotel Modena District","brand":"Best Western","address":"Campogalliano, 41011","country":"IT","website":"https://www.bestwestern.com/en_US/book/hotels-in-campogalliano/best-western-hotel-modena-district/propertyCode.98307.html"}},
{"type":"Feature","id":"l9eWuU6GyzO4t2TM0zrbxOeATec=","geometry":{"type":"Point","coordinates":[15.07821,37.50987]},"properties":{"name":"Best Western Hotel Mediterraneo","brand":"Best Western","address":"Catania, 95124","country":"IT","website":"https://www.bestwestern.com/en_US/book/hotels-in-catania/best-western-hotel-mediterraneo/propertyCode.98206.html"}},
{"type":"Feature","id":"lONBgaTK1tkf_UUdK5uKSCuHVVE=","geometry":{"type":"Point","coordinates":[127.05,37.449]},"properties":{"name":"Orakai Cheonggyesan Hotel, BW Premier Collection","brand":"BW Premier Collection","address":"Seoul, 06802","country":"KR","website":"https://www.bestwestern.com/en_US/book/hotels-in-seoul/orakai-cheonggyesan-hotel-bw-premier-collection/propertyCode.99534.html"}},
{"type":"Feature","id":"lR5TNIVRglEYuCcFVCuVgR3urR4=","geometry":{"type":"Point","coordinates":[126.98953,37.57245]},"properties":{"name":"Best Western Insadong Hotel","brand":"Best Western","address":"Seoul, 03139","country":"KR","website":"https://www.bestwestern.com/en_US/book/hotels-in-seoul/best-western-insadong-hotel/propertyCode.99541.html"}},
{"type":"Feature","id":"ln5Mg9r4JRur9R7AdHGbOvPsstc=","geometry":{"type":"Point","coordinates":[100.48193,13.76635]},"properties":{"name":"SureStay by Best Western Siriraj Bangkok","brand":"SureStay","address":"Bangkok, 10700","country":"TH","website":"https://www.bestwestern.com/en_US/book/hotels-in-bangkok/surestay-by-best-western-siriraj-bangkok/propertyCode.99945.html"}},
{"type":"Feature","id":"m1P8MreZsz-aS1o6l9Yz9f68opQ=","geometry":{"type":"Point","coordinates":[10.50844,45.37373]},"properties":{"name":"Aiden by Best Western JHD Dunant Hotel","brand":"Aiden","address":"Castiglione Delle Stiviere, 46043","country":"IT","website":"https://www.bestwestern.com/en_US/book/hotels-in-castiglione-delle-stiviere/aiden-by-best-western-jhd-dunant-hotel/propertyCode.98407.html"}},
{"type":"Feature","id":"mOBdpeJoXrOOesmayvYB0YbQbWw=","geometry":{"type":"Point","coordinates":[15.29081,41.51522]},"properties":{"name":"Best Western Hotel Palace Lucera","brand":"Best Western","address":"Lucera, 71036","country":"IT","website":"https://www.bestwestern.com/en_US/book/hotels-in-lucera/best-western-hotel-palace-lucera/propertyCode.98452.html"}},
{"type":"Feature","id":"mXhNHQDBqwu-kLDQXhoUpVgIDoY=","geometry":{"type":"Point","coordinates":[10.93155,44.65109]},"properties":{"name":"Best Western Premier Milano Palace Hotel","brand":"Best Western Premier","address":"Modena, 41121","country":"IT","website":"https://www.bestwestern.com/en_US/book/hotels-in-modena/best-western-premier-milano-palace-hotel/propertyCode.98351.html"}},
{"type":"Feature","id":"mfe54P52D-4oPJXKieurnH5AHik=","geometry":{"type":"Point","coordinates":[12.09446,42.42775]},"properties":{"name":"Best Western Hotel Viterbo","brand":"Best Western","address":"Viterbo, 01100","country":"IT","website":"https://www.bestwestern.com/en_US/book/hotels-in-viterbo/best-western-hotel-viterbo/propertyCode.98252.html"}},
{"type":"Feature","id":"n0zrkZv9VzWmfDfSyH5bET4oP2M=","geometry":{"type":"Point","coordinates":[8.92842,44.41174]},"properties":{"name":"Best Western Hotel Porto Antico","brand":"Best Western","address":"Genova, 16124","country":"IT","website":"https://www.bestwestern.com/en_US/book/hotels-in-genova/best-western-hotel-porto-antico/propertyCode.98234.html"}},
{"type":"Feature","id":"nU_R_s-Y7qEhX6rox32DBCHLcSE=","geometry":{"type":"Point","coordinates":[14.48839,40.93068]},"properties":{"name":"Best Western Hotel Ferrari","brand":"Best Western","address":"Nola, 80030","country":"IT","website":"https://www.bestwestern.com/en_US/book/hotels-in-nola/best-western-hotel-ferrari/propertyCode.98215.html"}},
{"type":"Feature","id":"nZk4wk-NhUPjnBPZ54yh0Khv5lM=","geometry":{"type":"Point","coordinates":[100.5309,13.90378]},"properties":{"name":"Best Western Plus Wanda Grand Hotel","brand":"Best Western Plus","address":"Bangkok, 11120","country":"TH","website":"https://www.bestwestern.com/en_US/book/hotels-in-bangkok/best-western-plus-wanda-grand-hotel/propertyCode.99363.html"}},
{"type":"Feature","id":"nrqtl65dswP1QE1kcLWAybZ07n8=","geometry":{"type":"Point","coordinates":[11.80157,46.26203]},"properties":{"name":"Hotel Cima Rosetta, WorldHotels Distinctive","brand":"WorldHotels","address":"San Martino Di Castrozza -Trento, 38054","country":"IT","website":"https://www.bestwestern.com/en_US/book/hotels-in-san-martino-di-castrozza-trento/hotel-cima-rosetta-worldhotels-distinctive/propertyCode.98416.html"}},
{"type":"Feature","id":"o9CX7Z7f1E4JL4YGDuxX3eUIE7M=","geometry":{"type":"Point","coordinates":[100.56406,13.73202]},"properties":{"name":"Best Western Sukhumvit 20","brand":"Best Western","address":"Bangkok, 10110","country":"TH","website":"https://www.bestwestern.com/en_US/book/hotels-in-bangkok/best-western-sukhumvit-20/propertyCode.99353.html"}},
{"type":"Feature","id":"o9rRFmstBOfj61UF4jf5-G7Y_hE=","geometry":{"type":"Point","coordinates":[9.20153,45.48816]},"properties":{"name":"Best Western Hotel Madison","brand":"Best Western","address":"Milano, 20124","country":"IT","website":"https://www.bestwestern.com/en_US/book/hotels-in-milano/best-western-hotel-madison/propertyCode.98306.html"}},
{"type":"Feature","id":"ogL2KSe_NePSP7Kr3MhlgwQA7sc=","geometry":{"type":"Point","coordinates":[12.96124,37.60043]},"properties":{"name":"Le Dune Resort, BW Signature Collection","brand":"BW Signature Collection","address":"Porto Palo Di Menfi, 92013","country":"IT","website":"https://www.bestwestern.com/en_US/book/hotels-in-porto-palo-di-menfi/le-dune-resort-bw-signature-collection/propertyCode.98436.html"}},
{"type":"Feature","id":"ovfgpbVWoa2I8aGB1-Gt_VTbKgE=","geometry":{"type":"Point","coordinates":[126.63638,37.39155]},"properties":{"name":"Orakai Songdo Park Hotel, BW Premier Collection","brand":"BW Premier Collection","address":"Incheon, 22004","country":"KR","website":"https://www.bestwestern.com/en_US/book/hotels-in-incheon/orakai-songdo-park-hotel-bw-premier-collection/propertyCode.99538.html"}},
{"type":"Feature","id":"pGdefJ01Jtm8y2XKKNsdp0ACGnM=","geometry":{"type":"Point","coordinates":[13.43787,43.29624]},"properties":{"name":"Best Western Hotel I Colli","brand":"Best Western","address":"Macerata, 62100","country":"IT","website":"https://www.bestwestern.com/en_US/book/hotels-in-macerata/best-western-hotel-i-colli/propertyCode.98353.html"}},
{"type":"Feature","id":"pTrj7WtsWxTEuZGJT0fv-G-EGwM=","geometry":{"type":"Point","coordinates":[100.5988,13.87957]},"properties":{"name":"Best Western Nada Don Mueang Airport Hotel","brand":"Best Western","address":"Bangkok, 10220","country":"TH","website":"https://www.bestwestern.com/en_US/book/hotels-in-bangkok/best-western-nada-don-mueang-airport-hotel/propertyCode.99928.html"}},
{"type":"Feature","id":"rUiyhdwnNs37xq_ssDxcPDfKbtQ=","geometry":{"type":"Point","coordinates":[127.02977,37.50639]},"properties":{"name":"Best Western Premier Gangnam","brand":"Best Western Premier","address":"Seoul, 135-010","country":"KR","website":"https://www.bestwestern.com/en_US/book/hotels-in-seoul/best-western-premier-gangnam/propertyCode.99507.html"}},
{"type":"Feature","id":"re_CrBlq84p2r5vuyqIrLfriDOU=","geometry":{"type":"Point","coordinates":[100.52682,13.71838]},"properties":{"name":"Best Western Click Sathorn 11 Bangkok","brand":"Best Western","address":"Sathorn, 10120","country":"TH","website":"https://www.bestwestern.com/en_US/book/hotels-in-sathorn/best-western-click-sathorn-11-bangkok/propertyCode.99933.html"}},
{"type":"Feature","id":"rnPsJLleUuqVkcEkBGuNdOmMZOM=","geometry":{"type":"Point","coordinates":[11.39061,44.49098]},"properties":{"name":"Best Western Plus Tower Hotel Bologna","brand":"Best Western Plus","address":"Bologna, 40138","country":"IT","website":"https://www.bestwestern.com/en_US/book/hotels-in-bologna/best-western-plus-tower-hotel-bologna/propertyCode.98361.html"}},
{"type":"Feature","id":"rphgp6zcobGU-UzOspFAcTHnmfA=","geometry":{"type":"Point","coordinates":[8.68131,40.90097]},"properties":{"name":"Hotel Blumarea, BW Signature Collection","brand":"BW Signature Collection","address":"Castelsardo, 07031","country":"IT","website":"https://www.bestwestern.com/en_US/book/hotels-in-castelsardo/hotel-blumarea-bw-signature-collection/propertyCode.98415.html"}},
{"type":"Feature","id":"s9POzoSUYwOoN21LA2Ix7KYPqQw=","geometry":{"type":"Point","coordinates":[10.77575,44.228]},"properties":{"name":"Hotel Villa delle Fate, BW Signature Collection","brand":"BW Signature Collection","address":"Sestola, 41029","country":"IT","website":"https://www.bestwestern.com/en_US/book/hotels-in-sestola/hotel-villa-delle-fate-bw-signature-collection/propertyCode.98411.html"}},
{"type":"Feature","id":"sptk70xaKM1CswrwP3W71L7ZE70=","geometry":{"type":"Point","coordinates":[12.22495,42.24036]},"properties":{"name":"Best Western Plus Carolus Park Hotel","brand":"Best Western Plus","address":"Sutri, 01015","country":"IT","website":"https://www.bestwestern.com/en_US/book/hotels-in-sutri/best-western-plus-carolus-park-hotel/propertyCode.98448.html"}},
{"type":"Feature","id":"stUaftq7SKUUejoX2sE8ZvmIajo=","geometry":{"type":"Point","coordinates":[14.13434,42.35474]},"properties":{"name":"Best Western Hotel Parco Paglia","brand":"Best Western","address":"Chieti, 66100","country":"IT","website":"https://www.bestwestern.com/en_US/book/hotels-in-chieti/best-western-hotel-parco-paglia/propertyCode.98286.html"}},
{"type":"Feature","id":"t5wQyaAn-0xB7aodgwbVWkU9RSY=","geometry":{"type":"Point","coordinates":[102.82223,16.38179]},"properties":{"name":"Best Western Q Khon Kaen","brand":"Best Western","address":"Khon Kaen, 40000","country":"TH","website":"https://www.bestwestern.com/en_US/book/hotels-in-khon-kaen/best-western-q-khon-kaen/propertyCode.99944.html"}},
{"type":"Feature","id":"txQD-c1Rvr4G8hPJbevlR-henb8=","geometry":{"type":"Point","coordinates":[-74.57164,39.27734]},"properties":{"name":"The Atlantic, BW Signature Collection","brand":"BW Signature Collection","address":"Ocean City, NJ, 08226-3615","country":"US","website":"https://www.bestwestern.com/en_US/book/hotels-in-ocean-city/the-atlantic-bw-signature-collection/propertyCode.31076.html"}},
{"type":"Feature","id":"tymtnulwIhAq7cZ31P8Ki-07hZk=","geometry":{"type":"Point","coordinates":[16.5488,38.8588]},"properties":{"name":"Best Western Grand Hotel Catanzaro","brand":"Best Western","address":"Caraffa Di Catanzaro, 88050","country":"IT","website":"https://www.bestwestern.com/en_US/book/hotels-in-caraffa-di-catanzaro/best-western-grand-hotel-catanzaro/propertyCode.98442.html"}},
{"type":"Feature","id":"u0TtszbREFKE55AqTCwrnOuD7no=","geometry":{"type":"Point","coordinates":[98.30172,7.89275]},"properties":{"name":"Best Western Patong Beach","brand":"Best Western","address":"Phuket, 83150","country":"TH","website":"https://www.bestwestern.com/en_US/book/hotels-in-phuket/best-western-patong-beach/propertyCode.99360.html"}},
{"type":"Feature","id":"u3XjkRLSdPma_gLnnR8nitoPSW4=","geometry":{"type":"Point","coordinates":[115.26721,-8.50011]},"properties":{"name":"Best Western Premier Agung Resort Ubud","brand":"Best Western Premier","address":"Ubud, 80571","country":"ID","website":"https://www.bestwestern.com/en_US/book/hotels-in-ubud/best-western-premier-agung-resort-ubud/propertyCode.99810.html"}},
{"type":"Feature","id":"u8FoS3LXuKn_9KI_7pGjXu7R7Zk=","geometry":{"type":"Point","coordinates":[11.31676,43.30876]},"properties":{"name":"Best Western Hotel San Marco","brand":"Best Western","address":"Siena, 53100","country":"IT","website":"https://www.bestwestern.com/en_US/book/hotels-in-siena/best-western-hotel-san-marco/propertyCode.98385.html"}},
{"type":"Feature","id":"v1y_h_-ez1EhoFfoy7d0nlpF44k=","geometry":{"type":"Point","coordinates":[9.24957,45.45206]},"properties":{"name":"Collini Rooms, WorldHotels Crafted","brand":"WorldHotels","address":"Milano, 20138","country":"IT","website":"https://www.bestwestern.com/en_US/book/hotels-in-milano/collini-rooms-worldhotels-crafted/propertyCode.98443.html"}},
{"type":"Feature","id":"vt7NBzb0hBf-loBv5pfaR3IEzUs=","geometry":{"type":"Point","coordinates":[120.27358,14.8233]},"properties":{"name":"Best Western Plus Hotel Subic","brand":"Best Western Plus","address":"Subic Bay, 2222","country":"PH","website":"https://www.bestwestern.com/en_US/book/hotels-in-subic-bay/best-western-plus-hotel-subic/propertyCode.99111.html"}},
{"type":"Feature","id":"w4mgHvMZLIU3HVr4OQIraSreVi0=","geometry":{"type":"Point","coordinates":[126.58427,35.94896]},"properties":{"name":"Best Western Gunsan Hotel","brand":"Best Western","address":"Gunsan, 573-540","country":"KR","website":"https://www.bestwestern.com/en_US/book/hotels-in-gunsan/best-western-gunsan-hotel/propertyCode.99520.html"}},
{"type":"Feature","id":"wXbLMy0mqoeorpGfxV006UvTkFk=","geometry":{"type":"Point","coordinates":[10.86224,44.59774]},"properties":{"name":"Best Western Plus Hotel Modena Resort","brand":"Best Western Plus","address":"Casinalbo Di Formigine, 41043","country":"IT","website":"https://www.bestwestern.com/en_US/book/hotels-in-casinalbo-di-formigine/best-western-plus-hotel-modena-resort/propertyCode.98305.html"}},
{"type":"Feature","id":"wkaisKBkoNkq9Y3O-xqE8u1LP7U=","geometry":{"type":"Point","coordinates":[14.35421,40.6275]},"properties":{"name":"Best Western Hotel La Solara","brand":"Best Western","address":"Sorrento, 80067","country":"IT","website":"https://www.bestwestern.com/en_US/book/hotels-in-sorrento/best-western-hotel-la-solara/propertyCode.98222.html"}},
{"type":"Feature","id":"wrLse6F8T3u-6LpmnRtu2FTZ1sg=","geometry":{"type":"Point","coordinates":[12.3174,43.0979]},"properties":{"name":"Best Western Hotel Quattrotorri Perugia","brand":"Best Western","address":"Perugia, 06132","country":"IT","website":"https://www.bestwestern.com/en_US/book/hotels-in-perugia/best-western-hotel-quattrotorri-perugia/propertyCode.98244.html"}},
{"type":"Feature","id":"xe-SwN0_VH6Zv6gQUaDbrpkv97Y=","geometry":{"type":"Point","coordinates":[7.6576,45.22424]},"properties":{"name":"Best Western Plus Hotel Le Rondini","brand":"Best Western Plus","address":"San Francesco Al Campo, 10070","country":"IT","website":"https://www.bestwestern.com/en_US/book/hotels-in-san-francesco-al-campo/best-western-plus-hotel-le-rondini/propertyCode.98354.html"}},
{"type":"Feature","id":"xhihJq2GgoVaTatfLyjSbhnugPc=","geometry":{"type":"Point","coordinates":[17.1172,40.57665]},"properties":{"name":"Best Western Plus Hotel Massafra","brand":"Best Western Plus","address":"Massafra, 74016","country":"IT","website":"https://www.bestwestern.com/en_US/book/hotels-in-massafra/best-western-plus-hotel-massafra/propertyCode.98424.html"}},
{"type":"Feature","id":"xnk_jfMGv1mshUSTAPcpbs1HX8g=","geometry":{"type":"Point","coordinates":[9.33073,45.63063]},"properties":{"name":"Best Western Plus BorgoLecco Hotel","brand":"Best Western Plus","address":"Arcore, 20862","country":"IT","website":"https://www.bestwestern.com/en_US/book/hotels-in-arcore/best-western-plus-borgolecco-hotel/propertyCode.98321.html"}},
{"type":"Feature","id":"yLDUjbxfzdFg0duIcXqJu9XS3oM=","geometry":{"type":"Point","coordinates":[100.06676,9.53411]},"properties":{"name":"Best Western Chaweng Samui","brand":"Best Western","address":"Koh Samui, 84320","country":"TH","website":"https://www.bestwestern.com/en_US/book/hotels-in-koh-samui/best-western-chaweng-samui/propertyCode.99935.html"}},
{"type":"Feature","id":"yRmqekV-kCZDzg36RajOwboCvww=","geometry":{"type":"Point","coordinates":[10.78282,45.55455]},"properties":{"name":"Best Western Hotel Garda","brand":"Best Western","address":"Affi, 37010","country":"IT","website":"https://www.bestwestern.com/en_US/book/hotels-in-affi/best-western-hotel-garda/propertyCode.98445.html"}},
{"type":"Feature","id":"zJ0YW5op3lJxqy767nF1J0F8otw=","geometry":{"type":"Point","coordinates":[100.67694,13.81856]},"properties":{"name":"SureStay by Best Western Bangkok Ramintra","brand":"SureStay","address":"Bangkok, 10230","country":"TH","website":"https://www.bestwestern.com/en_US/book/hotels-in-bangkok/surestay-by-best-western-bangkok-ramintra/propertyCode.99934.html"}}
]}
